ONEWEB-0674             
1 55833U 23029AP  25108.29110200 -.00000081  00000+0 -25273-3 0  9993
2 55833  87.9092  14.2391 0002298  71.0679 289.0699 13.14502955104274
ONEWEB-0675             
1 55834U 23029AQ  25109.16391393  .00000216  00000+0  50625-3 0  9992
2 55834  87.9265  29.2737 0001694  87.9422 272.1905 13.19726052103709
ONEWEB-0720             
1 55835U 23029AR  25108.85274170  .00000163  00000+0  37537-3 0  9999
2 55835  87.9263  29.3327 0001779  64.0839 296.0477 13.19724426103562
ONEWEB-0537             
1 56046U 23043A   25109.13155123 -.00000043  00000+0 -14647-3 0  9994
2 56046  87.9026 313.2907 0001715  96.1801 263.9525 13.16595711104072
ONEWEB-0538             
1 56047U 23043B   25109.12522493  .00000032  00000+0  49942-4 0  9995
2 56047  87.9028 313.3143 0001415  91.2262 268.9031 13.16595771104086
ONEWEB-0546             
1 56048U 23043C   25109.11255072  .00000021  00000+0  22505-4 0  9995
2 56048  87.9031 313.2855 0002060 108.2969 251.8386 13.16595829104077
ONEWEB-0547             
1 56049U 23043D   25108.51691552 -.00000002  00000+0 -35835-4 0  9997
2 56049  87.9271 328.6716 0001546  82.8984 277.2326 13.21826143103035
ONEWEB-0548             
1 56050U 23043E   25108.52990938  .00000006  00000+0 -18981-4 0  9996
2 56050  87.9029 313.4432 0002205  80.0908 280.0471 13.16596148103995
